{
  "type": "FeatureCollection",
  "features": [
    {
      "type": "Feature",
      "properties": {
        "norad_id": 40362,
        "name": "YAOGAN-26",
        "group": "resource",
        "lat": -49.63985759971892,
        "lon": -3.269257503366572,
        "alt_km": 454.03436192830304,
        "timestamp": "2025-12-13T16:48:32.370586+00:00",
        "meta_object_name": "YAOGAN-26",
        "meta_object_id": "2014-088A",
        "meta_epoch": "2025-12-12T23:51:54.031968",
        "meta_mean_motion": 15.39320945,
        "meta_eccentricity": 0.00061773,
        "meta_inclination": 97.0645,
        "meta_ra_of_asc_node": 347.659,
        "meta_arg_of_pericenter": 30.4364,
        "meta_mean_anomaly": 329.724,
        "meta_ephemeris_type": 0,
        "meta_classification_type": "U",
        "meta_norad_cat_id": 40362,
        "meta_element_set_no": 999,
        "meta_rev_at_epoch": 60898,
        "meta_bstar": 0.00092514915,
        "meta_mean_motion_dot": 0.00036165,
        "meta_mean_motion_ddot": 0,
        "tle_line1": "1 40362U 14088A   25346.99437537  .00036165  00000+0  92515-3 0  9998",
        "tle_line2": "2 40362  97.0645 347.6590 0006177  30.4364 329.7240 15.39320945608982"
      },
      "geometry": {
        "type": "Point",
        "coordinates": [
          -3.269257503366572,
          -49.63985759971892
        ]
      }
    },
    {
      "type": "Feature",
      "properties": {
        "norad_id": 40376,
        "name": "SMAP",
        "group": "resource",
        "lat": -62.44804075410484,
        "lon": 8.310862872100206,
        "alt_km": 690.3123465921881,
        "timestamp": "2025-12-13T16:48:32.370596+00:00",
        "meta_object_name": "SMAP",
        "meta_object_id": "2015-003A",
        "meta_epoch": "2025-12-13T00:41:19.000032",
        "meta_mean_motion": 14.63345594,
        "meta_eccentricity": 0.00011993,
        "meta_inclination": 98.1291,
        "meta_ra_of_asc_node": 351.7484,
        "meta_arg_of_pericenter": 90.113,
        "meta_mean_anomaly": 270.021,
        "meta_ephemeris_type": 0,
        "meta_classification_type": "U",
        "meta_norad_cat_id": 40376,
        "meta_element_set_no": 999,
        "meta_rev_at_epoch": 58039,
        "meta_bstar": 0.00018041183,
        "meta_mean_motion_dot": 8.85e-06,
        "meta_mean_motion_ddot": 0,
        "tle_line1": "1 40376U 15003A   25347.02869213  .00000885  00000+0  18041-3 0  9998",
        "tle_line2": "2 40376  98.1291 351.7484 0001199  90.1130 270.0210 14.63345594580399"
      },
      "geometry": {
        "type": "Point",
        "coordinates": [
          8.310862872100206,
          -62.44804075410484
        ]
      }
    },
    {
      "type": "Feature",
      "properties": {
        "norad_id": 40536,
        "name": "KOMPSAT-3A",
        "group": "resource",
        "lat": -81.59490321500384,
        "lon": 76.15795305739037,
        "alt_km": 444.37478770292,
        "timestamp": "2025-12-13T16:48:32.370606+00:00",
        "meta_object_name": "KOMPSAT-3A",
        "meta_object_id": "2015-014A",
        "meta_epoch": "2025-12-13T00:06:13.407840",
        "meta_mean_motion": 15.43956972,
        "meta_eccentricity": 0.00049554,
        "meta_inclination": 97.6787,
        "meta_ra_of_asc_node": 321.3654,
        "meta_arg_of_pericenter": 126.6435,
        "meta_mean_anomaly": 233.5268,
        "meta_ephemeris_type": 0,
        "meta_classification_type": "U",
        "meta_norad_cat_id": 40536,
        "meta_element_set_no": 999,
        "meta_rev_at_epoch": 59299,
        "meta_bstar": 0.00057236244,
        "meta_mean_motion_dot": 0.0002602,
        "meta_mean_motion_ddot": 0,
        "tle_line1": "1 40536U 15014A   25347.00432185  .00026020  00000+0  57236-3 0  9998",
        "tle_line2": "2 40536  97.6787 321.3654 0004955 126.6435 233.5268 15.43956972592992"
      },
      "geometry": {
        "type": "Point",
        "coordinates": [
          76.15795305739037,
          -81.59490321500384
        ]
      }
    },
    {
      "type": "Feature",
      "properties": {
        "norad_id": 40697,
        "name": "SENTINEL-2A",
        "group": "resource",
        "lat": 51.60687408456893,
        "lon": 49.24959768174034,
        "alt_km": 783.5431774742074,
        "timestamp": "2025-12-13T16:48:32.370617+00:00",
        "meta_object_name": "SENTINEL-2A",
        "meta_object_id": "2015-028A",
        "meta_epoch": "2025-12-12T23:46:53.587200",
        "meta_mean_motion": 14.30812955,
        "meta_eccentricity": 0.00010956,
        "meta_inclination": 98.5686,
        "meta_ra_of_asc_node": 59.5192,
        "meta_arg_of_pericenter": 87.838,
        "meta_mean_anomaly": 272.2928,
        "meta_ephemeris_type": 0,
        "meta_classification_type": "U",
        "meta_norad_cat_id": 40697,
        "meta_element_set_no": 999,
        "meta_rev_at_epoch": 54710,
        "meta_bstar": 8.9346031e-05,
        "meta_mean_motion_dot": 1.91e-06,
        "meta_mean_motion_ddot": 0,
        "tle_line1": "1 40697U 15028A   25346.99089800  .00000191  00000+0  89346-4 0  9999",
        "tle_line2": "2 40697  98.5686  59.5192 0001095  87.8380 272.2928 14.30812955547107"
      },
      "geometry": {
        "type": "Point",
        "coordinates": [
          49.24959768174034,
          51.60687408456893
        ]
      }
    },
    {
      "type": "Feature",
      "properties": {
        "norad_id": 40701,
        "name": "GAOFEN-8",
        "group": "resource",
        "lat": 67.4757653120431,
        "lon": 4.9062340619494105,
        "alt_km": 436.52273992525716,
        "timestamp": "2025-12-13T16:48:32.370627+00:00",
        "meta_object_name": "GAOFEN-8",
        "meta_object_id": "2015-030A",
        "meta_epoch": "2025-12-13T00:43:06.429792",
        "meta_mean_motion": 15.38547412,
        "meta_eccentricity": 0.00116128,
        "meta_inclination": 97.6914,
        "meta_ra_of_asc_node": 165.184,
        "meta_arg_of_pericenter": 136.705,
        "meta_mean_anomaly": 223.5109,
        "meta_ephemeris_type": 0,
        "meta_classification_type": "U",
        "meta_norad_cat_id": 40701,
        "meta_element_set_no": 999,
        "meta_rev_at_epoch": 58275,
        "meta_bstar": 0.00023302597,
        "meta_mean_motion_dot": 8.797e-05,
        "meta_mean_motion_ddot": 0,
        "tle_line1": "1 40701U 15030A   25347.02993553  .00008797  00000+0  23303-3 0  9992",
        "tle_line2": "2 40701  97.6914 165.1840 0011612 136.7050 223.5109 15.38547412582757"
      },
      "geometry": {
        "type": "Point",
        "coordinates": [
          4.9062340619494105,
          67.4757653120431
        ]
      }
    },
    {
      "type": "Feature",
      "properties": {
        "norad_id": 40718,
        "name": "CARBONITE 1 (CBNT-1)",
        "group": "resource",
        "lat": -29.847307629399953,
        "lon": -15.715989090326717,
        "alt_km": 617.9986960008691,
        "timestamp": "2025-12-13T16:48:32.370637+00:00",
        "meta_object_name": "CARBONITE 1 (CBNT-1)",
        "meta_object_id": "2015-032D",
        "meta_epoch": "2025-12-12T23:40:08.035968",
        "meta_mean_motion": 14.82746695,
        "meta_eccentricity": 0.00144682,
        "meta_inclination": 97.6405,
        "meta_ra_of_asc_node": 168.0192,
        "meta_arg_of_pericenter": 180.7979,
        "meta_mean_anomaly": 179.3215,
        "meta_ephemeris_type": 0,
        "meta_classification_type": "U",
        "meta_norad_cat_id": 40718,
        "meta_element_set_no": 999,
        "meta_rev_at_epoch": 56174,
        "meta_bstar": 0.00042073606,
        "meta_mean_motion_dot": 3.354e-05,
        "meta_mean_motion_ddot": 0,
        "tle_line1": "1 40718U 15032D   25346.98620412  .00003354  00000+0  42074-3 0  9997",
        "tle_line2": "2 40718  97.6405 168.0192 0014468 180.7979 179.3215 14.82746695561747"
      },
      "geometry": {
        "type": "Point",
        "coordinates": [
          -15.715989090326717,
          -29.847307629399953
        ]
      }
    },
    {
      "type": "Feature",
      "properties": {
        "norad_id": 40878,
        "name": "YAOGAN-27",
        "group": "resource",
        "lat": 51.55999839889745,
        "lon": -35.70169334329316,
        "alt_km": 1198.4647284656212,
        "timestamp": "2025-12-13T16:48:32.370647+00:00",
        "meta_object_name": "YAOGAN-27",
        "meta_object_id": "2015-040A",
        "meta_epoch": "2025-12-13T00:07:17.075136",
        "meta_mean_motion": 13.1606122,
        "meta_eccentricity": 0.00076326,
        "meta_inclination": 100.1016,
        "meta_ra_of_asc_node": 336.6129,
        "meta_arg_of_pericenter": 286.1396,
        "meta_mean_anomaly": 73.8878,
        "meta_ephemeris_type": 0,
        "meta_classification_type": "U",
        "meta_norad_cat_id": 40878,
        "meta_element_set_no": 999,
        "meta_rev_at_epoch": 49317,
        "meta_bstar": 0.00027072644,
        "meta_mean_motion_dot": 6e-07,
        "meta_mean_motion_ddot": 0,
        "tle_line1": "1 40878U 15040A   25347.00505874  .00000060  00000+0  27073-3 0  9994",
        "tle_line2": "2 40878 100.1016 336.6129 0007632 286.1396  73.8878 13.16061220493178"
      },
      "geometry": {
        "type": "Point",
        "coordinates": [
          -35.70169334329316,
          51.55999839889745
        ]
      }
    }
  ]
}